[{"OBJECT_NAME":"NUSAT-48 (HENRIETTA LEAVITT)","OBJECT_ID":"2024-149AG","EPOCH":"2026-03-09T19:19:17.269536","MEAN_MOTION":15.29812597,"ECCENTRICITY":0.00027538,"INCLINATION":97.3923,"RA_OF_ASC_NODE":150.8264,"ARG_OF_PERICENTER":263.3026,"MEAN_ANOMALY":96.7901,"EPHEMERIS_TYPE":0,"CLASSIFICATION_TYPE":"U","NORAD_CAT_ID":60498,"ELEMENT_SET_NO":999,"REV_AT_EPOCH":8694,"BSTAR":0.00045211745,"MEAN_MOTION_DOT":0.00012988,"MEAN_MOTION_DDOT":0},{"OBJECT_NAME":"STARLINK-35932","OBJECT_ID":"2025-265L","EPOCH":"2026-03-08T15:20:09.391776","MEAN_MOTION":15.27602763,"ECCENTRICITY":3.232e-5,"INCLINATION":42.9979,"RA_OF_ASC_NODE":283.7947,"ARG_OF_PERICENTER":336.752,"MEAN_ANOMALY":23.3317,"EPHEMERIS_TYPE":0,"CLASSIFICATION_TYPE":"U","NORAD_CAT_ID":66526,"ELEMENT_SET_NO":999,"REV_AT_EPOCH":1695,"BSTAR":0.001494568,"MEAN_MOTION_DOT":0.00041123,"MEAN_MOTION_DDOT":0}]
